start=new Date('2023-01-26T00:00:00.000Z').valueOf();
sats=[{"CLASSIFICATION_TYPE":"U","PERIAPSIS":"538.938","MEAN_ELEMENT_THEORY":"SGP4","EPHEMERIS_TYPE":"0","EPOCH":"2023-01-25T16:13:00.208704","DECAY_DATE":null,"PERIOD":"95.437","MEAN_MOTION_DDOT":"0.0000000000000","MEAN_MOTION":"15.08843989","LAUNCH_DATE":"2022-09-05","ELEMENT_SET_NO":"999","MEAN_ANOMALY":"275.5829","SEMIMAJOR_AXIS":"6917.868","SITE":"AFETR","COUNTRY_CODE":"US","APOAPSIS":"540.528","FILE":"3761360","OBJECT_ID":"2022-107AM","ECCENTRICITY":"0.00011490","OBJECT_TYPE":"PAYLOAD","ARG_OF_PERICENTER":"84.5295","GP_ID":"223719536","TIME_SYSTEM":"UTC","TLE_LINE1":"1 53735U 22107AM  23025.67569686  .00001724  00000-0  12639-3 0  9998","REV_AT_EPOCH":"2249","BSTAR":"0.00012639000000","MEAN_MOTION_DOT":"0.00001724","TLE_LINE2":"2 53735  53.2189 337.1653 0001149  84.5295 275.5829 15.08843989 22499","OBJECT_NAME":"STARLINK-4618","CENTER_NAME":"EARTH","RA_OF_ASC_NODE":"337.1653","NORAD_CAT_ID":"53735","RCS_SIZE":"LARGE","REF_FRAME":"TEME","INCLINATION":"53.2189"},{"SEMIMAJOR_AXIS":"6917.832","MEAN_ANOMALY":"261.7529","ELEMENT_SET_NO":"999","LAUNCH_DATE":"2022-09-05","SITE":"AFETR","FILE":"3761297","APOAPSIS":"540.451","COUNTRY_CODE":"US","TIME_SYSTEM":"UTC","GP_ID":"223691989","ARG_OF_PERICENTER":"98.3587","OBJECT_TYPE":"PAYLOAD","ECCENTRICITY":"0.00010890","OBJECT_ID":"2022-107AN","MEAN_ELEMENT_THEORY":"SGP4","PERIAPSIS":"538.944","CLASSIFICATION_TYPE":"U","DECAY_DATE":null,"EPOCH":"2023-01-25T05:54:22.921632","EPHEMERIS_TYPE":"0","PERIOD":"95.437","MEAN_MOTION_DDOT":"0.0000000000000","MEAN_MOTION":"15.08855700","OBJECT_NAME":"STARLINK-4652","RA_OF_ASC_NODE":"329.4677","CENTER_NAME":"EARTH","REF_FRAME":"TEME","RCS_SIZE":"LARGE","NORAD_CAT_ID":"53736","INCLINATION":"53.2187","TLE_LINE1":"1 53736U 22107AN  23025.24609863  .00006035  00000-0  39675-3 0  9993","REV_AT_EPOCH":"2256","TLE_LINE2":"2 53736  53.2187 329.4677 0001089  98.3587 261.7529 15.08855700 22564","MEAN_MOTION_DOT":"0.00006035","BSTAR":"0.00039675000000"},{"TLE_LINE1":"1 53737U 22107AP  23025.28194096  .00026137  00000-0  16530-2 0  9994","TLE_LINE2":"2 53737  53.2205 338.9706 0001113  78.8172 281.2946 15.08867891 22581","MEAN_MOTION_DOT":"0.00026137","BSTAR":"0.00165300000000","REV_AT_EPOCH":"2258","RA_OF_ASC_NODE":"338.9706","CENTER_NAME":"EARTH","OBJECT_NAME":"STARLINK-4646","INCLINATION":"53.2205","REF_FRAME":"TEME","RCS_SIZE":"LARGE","NORAD_CAT_ID":"53737","DECAY_DATE":null,"EPOCH":"2023-01-25T06:45:59.698944","EPHEMERIS_TYPE":"0","PERIAPSIS":"538.890","MEAN_ELEMENT_THEORY":"SGP4","CLASSIFICATION_TYPE":"U","MEAN_MOTION_DDOT":"0.0000000000000","MEAN_MOTION":"15.08867891","PERIOD":"95.436","SITE":"AFETR","SEMIMAJOR_AXIS":"6917.795","MEAN_ANOMALY":"281.2946","LAUNCH_DATE":"2022-09-05","ELEMENT_SET_NO":"999","TIME_SYSTEM":"UTC","GP_ID":"223692240","ARG_OF_PERICENTER":"78.8172","OBJECT_TYPE":"PAYLOAD","OBJECT_ID":"2022-107AP","ECCENTRICITY":"0.00011130","FILE":"3761297","APOAPSIS":"540.430","COUNTRY_CODE":"US"},{"FILE":"3761297","APOAPSIS":"540.605","COUNTRY_CODE":"US","TIME_SYSTEM":"UTC","GP_ID":"223690990","ARG_OF_PERICENTER":"89.9566","OBJECT_TYPE":"PAYLOAD","OBJECT_ID":"2022-107AQ","ECCENTRICITY":"0.00013210","SEMIMAJOR_AXIS":"6917.826","MEAN_ANOMALY":"270.1578","ELEMENT_SET_NO":"999","LAUNCH_DATE":"2022-09-05","SITE":"AFETR","PERIOD":"95.436","MEAN_MOTION_DDOT":"0.0000000000000","MEAN_MOTION":"15.08857792","PERIAPSIS":"538.777","MEAN_ELEMENT_THEORY":"SGP4","CLASSIFICATION_TYPE":"U","DECAY_DATE":null,"EPOCH":"2023-01-25T06:35:23.166816","EPHEMERIS_TYPE":"0","REF_FRAME":"TEME","RCS_SIZE":"LARGE","NORAD_CAT_ID":"53738","INCLINATION":"53.2208","OBJECT_NAME":"STARLINK-4662","RA_OF_ASC_NODE":"338.9218","CENTER_NAME":"EARTH","REV_AT_EPOCH":"2243","TLE_LINE2":"2 53738  53.2208 338.9218 0001321  89.9566 270.1578 15.08857792 22435","MEAN_MOTION_DOT":"0.00011565","BSTAR":"0.00074314000000","TLE_LINE1":"1 53738U 22107AQ  23025.27457369  .00011565  00000-0  74314-3 0  9993"},{"PERIOD":"95.437","MEAN_MOTION_DDOT":"0.0000000000000","MEAN_MOTION":"15.08852784","CLASSIFICATION_TYPE":"U","PERIAPSIS":"538.769","MEAN_ELEMENT_THEORY":"SGP4","EPHEMERIS_TYPE":"0","EPOCH":"2023-01-25T05:15:54.895104","DECAY_DATE":null,"COUNTRY_CODE":"US","APOAPSIS":"540.644","FILE":"3760648","OBJECT_ID":"2022-107AS","ECCENTRICITY":"0.00013550","OBJECT_TYPE":"PAYLOAD","GP_ID":"223652822","ARG_OF_PERICENTER":"84.2327","TIME_SYSTEM":"UTC","LAUNCH_DATE":"2022-09-05","ELEMENT_SET_NO":"999","MEAN_ANOMALY":"275.8820","SEMIMAJOR_AXIS":"6917.841","SITE":"AFETR","REV_AT_EPOCH":"2179","BSTAR":"0.00075598000000","MEAN_MOTION_DOT":"0.00011768","TLE_LINE2":"2 53740  53.2206 339.2891 0001355  84.2327 275.8820 15.08852784 21793","TLE_LINE1":"1 53740U 22107AS  23025.21938536  .00011768  00000-0  75598-3 0  9990","NORAD_CAT_ID":"53740","RCS_SIZE":"LARGE","REF_FRAME":"TEME","INCLINATION":"53.2206","OBJECT_NAME":"STARLINK-4607","CENTER_NAME":"EARTH","RA_OF_ASC_NODE":"339.2891"},{"EPOCH":"2023-01-25T04:44:49.135488","DECAY_DATE":null,"EPHEMERIS_TYPE":"0","MEAN_ELEMENT_THEORY":"SGP4","PERIAPSIS":"537.613","CLASSIFICATION_TYPE":"U","MEAN_MOTION":"15.08836586","MEAN_MOTION_DDOT":"0.0000000000000","PERIOD":"95.438","SITE":"AFETR","SEMIMAJOR_AXIS":"6917.891","ELEMENT_SET_NO":"999","LAUNCH_DATE":"2022-09-05","MEAN_ANOMALY":"265.6330","ARG_OF_PERICENTER":"94.5016","GP_ID":"223652597","TIME_SYSTEM":"UTC","OBJECT_ID":"2022-107AT","ECCENTRICITY":"0.00030980","OBJECT_TYPE":"PAYLOAD","APOAPSIS":"541.899","FILE":"3760649","COUNTRY_CODE":"US","TLE_LINE1":"1 53741U 22107AT  23025.19779092  .00000838  00000-0  70775-4 0  9997","MEAN_MOTION_DOT":"0.00000838","TLE_LINE2":"2 53741  53.2193 324.2644 0003098  94.5016 265.6330 15.08836586 22004","BSTAR":"0.00007077500000","REV_AT_EPOCH":"2200","RA_OF_ASC_NODE":"324.2644","CENTER_NAME":"EARTH","OBJECT_NAME":"STARLINK-4614","INCLINATION":"53.2193","RCS_SIZE":"LARGE","REF_FRAME":"TEME","NORAD_CAT_ID":"53741"},{"OBJECT_NAME":"STARLINK-4637","CENTER_NAME":"EARTH","RA_OF_ASC_NODE":"337.2287","NORAD_CAT_ID":"53742","REF_FRAME":"TEME","RCS_SIZE":"LARGE","INCLINATION":"53.2190","TLE_LINE1":"1 53742U 22107AU  23025.68675677  .00012595  00000-0  80781-3 0  9996","REV_AT_EPOCH":"2264","BSTAR":"0.00080781000000","TLE_LINE2":"2 53742  53.2190 337.2287 0001245  92.8900 267.2234 15.08849393 22645","MEAN_MOTION_DOT":"0.00012595","MEAN_ANOMALY":"267.2234","ELEMENT_SET_NO":"999","LAUNCH_DATE":"2022-09-05","SEMIMAJOR_AXIS":"6917.852","SITE":"AFETR","COUNTRY_CODE":"US","FILE":"3761360","APOAPSIS":"540.578","OBJECT_TYPE":"PAYLOAD","OBJECT_ID":"2022-107AU","ECCENTRICITY":"0.00012450","TIME_SYSTEM":"UTC","ARG_OF_PERICENTER":"92.8900","GP_ID":"223720039","CLASSIFICATION_TYPE":"U","PERIAPSIS":"538.855","MEAN_ELEMENT_THEORY":"SGP4","EPHEMERIS_TYPE":"0","DECAY_DATE":null,"EPOCH":"2023-01-25T16:28:55.784928","PERIOD":"95.437","MEAN_MOTION":"15.08849393","MEAN_MOTION_DDOT":"0.0000000000000"},{"MEAN_MOTION_DDOT":"0.0000000000000","MEAN_MOTION":"15.08844509","PERIOD":"95.437","EPHEMERIS_TYPE":"0","DECAY_DATE":null,"EPOCH":"2023-01-25T13:39:22.702464","CLASSIFICATION_TYPE":"U","MEAN_ELEMENT_THEORY":"SGP4","PERIAPSIS":"539.077","OBJECT_TYPE":"PAYLOAD","ECCENTRICITY":"0.00009460","OBJECT_ID":"2022-107AV","TIME_SYSTEM":"UTC","ARG_OF_PERICENTER":"78.2043","GP_ID":"223691491","COUNTRY_CODE":"US","FILE":"3761297","APOAPSIS":"540.386","SITE":"AFETR","MEAN_ANOMALY":"281.9055","ELEMENT_SET_NO":"999","LAUNCH_DATE":"2022-09-05","SEMIMAJOR_AXIS":"6917.867","BSTAR":"0.00038587000000","TLE_LINE2":"2 53743  53.2189 337.9181 0000946  78.2043 281.9055 15.08844509 22623","MEAN_MOTION_DOT":"0.00005859","REV_AT_EPOCH":"2262","TLE_LINE1":"1 53743U 22107AV  23025.56901276  .00005859  00000-0  38587-3 0  9993","INCLINATION":"53.2189","NORAD_CAT_ID":"53743","REF_FRAME":"TEME","RCS_SIZE":"LARGE","CENTER_NAME":"EARTH","RA_OF_ASC_NODE":"337.9181","OBJECT_NAME":"STARLINK-4645"},{"INCLINATION":"53.2189","REF_FRAME":"TEME","RCS_SIZE":"LARGE","NORAD_CAT_ID":"53743","RA_OF_ASC_NODE":"337.9181","CENTER_NAME":"EARTH","OBJECT_NAME":"STARLINK-4645","TLE_LINE2":"2 53743  53.2189 337.9181 0000946  78.2043 281.9055 15.08844509 21846","MEAN_MOTION_DOT":"0.00005859","BSTAR":"0.00038587000000","REV_AT_EPOCH":"2184","TLE_LINE1":"1 53743U 22107AV  23025.56901276  .00005859  00000-0  38587-3 0  9993","TIME_SYSTEM":"UTC","ARG_OF_PERICENTER":"78.2043","GP_ID":"223693162","OBJECT_TYPE":"PAYLOAD","OBJECT_ID":"2022-107AV","ECCENTRICITY":"0.00009460","FILE":"3761315","APOAPSIS":"540.386","COUNTRY_CODE":"US","SITE":"AFETR","SEMIMAJOR_AXIS":"6917.867","MEAN_ANOMALY":"281.9055","LAUNCH_DATE":"2022-09-05","ELEMENT_SET_NO":"999","MEAN_MOTION":"15.08844509","MEAN_MOTION_DDOT":"0.0000000000000","PERIOD":"95.437","DECAY_DATE":null,"EPOCH":"2023-01-25T13:39:22.702464","EPHEMERIS_TYPE":"0","MEAN_ELEMENT_THEORY":"SGP4","PERIAPSIS":"539.077","CLASSIFICATION_TYPE":"U"},{"PERIOD":"95.437","MEAN_MOTION":"15.08845495","MEAN_MOTION_DDOT":"0.0000000000000","CLASSIFICATION_TYPE":"U","PERIAPSIS":"538.205","MEAN_ELEMENT_THEORY":"SGP4","EPHEMERIS_TYPE":"0","EPOCH":"2023-01-25T19:45:00.034848","DECAY_DATE":null,"COUNTRY_CODE":"US","APOAPSIS":"541.253","FILE":"3761360","ECCENTRICITY":"0.00022030","OBJECT_ID":"2022-107AW","OBJECT_TYPE":"PAYLOAD","ARG_OF_PERICENTER":"77.6588","GP_ID":"223719537","TIME_SYSTEM":"UTC","LAUNCH_DATE":"2022-09-05","ELEMENT_SET_NO":"999","MEAN_ANOMALY":"282.4651","SEMIMAJOR_AXIS":"6917.864","SITE":"AFETR","REV_AT_EPOCH":"2266","BSTAR":"0.00029729000000","MEAN_MOTION_DOT":"0.00004447","TLE_LINE2":"2 53744  53.2209 336.6581 0002203  77.6588 282.4651 15.08845495 22669","TLE_LINE1":"1 53744U 22107AW  23025.82291707  .00004447  00000-0  29729-3 0  9994","NORAD_CAT_ID":"53744","RCS_SIZE":"LARGE","REF_FRAME":"TEME","INCLINATION":"53.2209","OBJECT_NAME":"STARLINK-4670","CENTER_NAME":"EARTH","RA_OF_ASC_NODE":"336.6581"}];
